STARLINK-1049_new
1 14754C 19074AT  21326.13713575 -.00008948  00000-0 -59935-3 0  3260
2 14754  53.0550  28.1320 0001094  62.2418 189.1623 15.06417033    18
STARLINK-1049_old
1 24754C 19074AT  21325.13611350  .00003368  00000-0  22562-3 0  3251
2 24754  53.0555  32.6257 0001067  64.6385 155.1725 15.06398766    18
